[
    {
        "Altitude(m)": 702964.1597676062,
        "Argument of Periapsis(deg)": 0.011390121186627068,
        "Eccentricity": 0.0,
        "Inclination(deg)": 45.0,
        "Latitude(deg)": 19.380655285783135,
        "Longitude(deg)": -15.293553392575252,
        "Mean Anomaly(deg)": 27.896816647480822,
        "RAAN(deg)": 64.98924805854179,
        "Satellite Name": "Constellation 1 287",
        "Satellite Number": 287,
        "Semi-Major Axis(m)": 7083131.272910544,
        "Time(s)": 190
    },
    {
        "Altitude(m)": 702967.2474492979,
        "Argument of Periapsis(deg)": 0.011450069192872472,
        "Eccentricity": 0.0,
        "Inclination(deg)": 45.0,
        "Latitude(deg)": 19.42110580622858,
        "Longitude(deg)": -15.249506214349998,
        "Mean Anomaly(deg)": 27.95751778773072,
        "RAAN(deg)": 64.98919146937624,
        "Satellite Name": "Constellation 1 287",
        "Satellite Number": 287,
        "Semi-Major Axis(m)": 7083131.272910544,
        "Time(s)": 191
    },
    {
        "Altitude(m)": 702970.3495045222,
        "Argument of Periapsis(deg)": 0.01151001719911788,
        "Eccentricity": 0.0,
        "Inclination(deg)": 45.0,
        "Latitude(deg)": 19.461543394645815,
        "Longitude(deg)": -15.20543519728017,
        "Mean Anomaly(deg)": 28.018218927980616,
        "RAAN(deg)": 64.98913488021066,
        "Satellite Name": "Constellation 1 287",
        "Satellite Number": 287,
        "Semi-Major Axis(m)": 7083131.272910544,
        "Time(s)": 192
    },
    {
        "Altitude(m)": 702973.4659024517,
        "Argument of Periapsis(deg)": 0.011569965205363285,
        "Eccentricity": 0.0,
        "Inclination(deg)": 45.0,
        "Latitude(deg)": 19.50196801572845,
        "Longitude(deg)": -15.161340451679665,
        "Mean Anomaly(deg)": 28.07892006823052,
        "RAAN(deg)": 64.98907829104509,
        "Satellite Name": "Constellation 1 287",
        "Satellite Number": 287,
        "Semi-Major Axis(m)": 7083131.272910544,
        "Time(s)": 193
    },
    {
        "Altitude(m)": 702976.5966122083,
        "Argument of Periapsis(deg)": 0.01162991321160869,
        "Eccentricity": 0.0,
        "Inclination(deg)": 45.0,
        "Latitude(deg)": 19.54237963412384,
        "Longitude(deg)": -15.117221583542149,
        "Mean Anomaly(deg)": 28.139621208480417,
        "RAAN(deg)": 64.98902170187951,
        "Satellite Name": "Constellation 1 287",
        "Satellite Number": 287,
        "Semi-Major Axis(m)": 7083131.272910544,
        "Time(s)": 194
    },
    {
        "Altitude(m)": 702979.7416028613,
        "Argument of Periapsis(deg)": 0.011689861217854095,
        "Eccentricity": 0.0,
        "Inclination(deg)": 45.0,
        "Latitude(deg)": 19.58277821443122,
        "Longitude(deg)": -15.073078703123505,
        "Mean Anomaly(deg)": 28.20032234873032,
        "RAAN(deg)": 64.98896511271396,
        "Satellite Name": "Constellation 1 287",
        "Satellite Number": 287,
        "Semi-Major Axis(m)": 7083131.272910544,
        "Time(s)": 195
    },
    {
        "Altitude(m)": 702982.9008434162,
        "Argument of Periapsis(deg)": 0.0117498092240995,
        "Eccentricity": 0.0,
        "Inclination(deg)": 45.0,
        "Latitude(deg)": 19.623163721202744,
        "Longitude(deg)": -15.02891175255358,
        "Mean Anomaly(deg)": 28.26102348898023,
        "RAAN(deg)": 64.98890852354839,
        "Satellite Name": "Constellation 1 287",
        "Satellite Number": 287,
        "Semi-Major Axis(m)": 7083131.272910544,
        "Time(s)": 196
    },
    {
        "Altitude(m)": 702986.0743028322,
        "Argument of Periapsis(deg)": 0.011809757230344905,
        "Eccentricity": 0.0,
        "Inclination(deg)": 45.0,
        "Latitude(deg)": 19.663536118943014,
        "Longitude(deg)": -14.98472067393335,
        "Mean Anomaly(deg)": 28.321724629230115,
        "RAAN(deg)": 64.98885193438281,
        "Satellite Name": "Constellation 1 287",
        "Satellite Number": 287,
        "Semi-Major Axis(m)": 7083131.272910544,
        "Time(s)": 197
    },
    {
        "Altitude(m)": 702989.2619500144,
        "Argument of Periapsis(deg)": 0.011869705236590313,
        "Eccentricity": 0.0,
        "Inclination(deg)": 45.0,
        "Latitude(deg)": 19.70389537210913,
        "Longitude(deg)": -14.940505409335014,
        "Mean Anomaly(deg)": 28.38242576948002,
        "RAAN(deg)": 64.98879534521724,
        "Satellite Name": "Constellation 1 287",
        "Satellite Number": 287,
        "Semi-Major Axis(m)": 7083131.272910544,
        "Time(s)": 198
    },
    {
        "Altitude(m)": 702992.4637538021,
        "Argument of Periapsis(deg)": 0.011929653242835719,
        "Eccentricity": 0.0,
        "Inclination(deg)": 45.0,
        "Latitude(deg)": 19.744241445110394,
        "Longitude(deg)": -14.896265900802042,
        "Mean Anomaly(deg)": 28.443126909729916,
        "RAAN(deg)": 64.98873875605167,
        "Satellite Name": "Constellation 1 287",
        "Satellite Number": 287,
        "Semi-Major Axis(m)": 7083131.272910544,
        "Time(s)": 199
    }
]